IRIDIUM 150             
1 43257U 18030J   25091.58319072  .00000173  00000+0  54635-4 0  9992
2 43257  86.3924 115.1064 0001993  94.4764 265.6659 14.34215490366860
IRIDIUM 143             
1 43258U 18030K   25091.56416232  .00000201  00000+0  64573-4 0  9991
2 43258  86.3929 115.1898 0001847  97.9298 262.2107 14.34217743366795
IRIDIUM 161             
1 43478U 18047C   25091.53155645  .00000275  00000+0  75804-4 0  9998
2 43478  86.4429 272.9971 0002227  91.6257 268.5199 14.43273657361430
IRIDIUM 152             
1 43479U 18047D   25091.53687661  .00000019  00000+0 -32647-6 0  9994
2 43479  86.3905 272.8548 0002140  88.7150 271.4291 14.34217612359185
IRIDIUM 147             
1 43480U 18047E   25091.54322530  .00000204  00000+0  65665-4 0  9997
2 43480  86.3907 272.8496 0002312  93.1405 267.0055 14.34217476359182
IRIDIUM 110             
1 43481U 18047F   25091.54956235  .00000023  00000+0  11824-5 0  9991
2 43481  86.3907 272.9274 0002513  84.6490 275.4992 14.34217094359178
IRIDIUM 162             
1 43482U 18047G   25091.59458164  .00000261  00000+0  71504-4 0  9999
2 43482  86.4429 272.8668 0002146  81.8267 278.3177 14.43276485361436
IRIDIUM 160             
1 43569U 18061A   25091.49540125  .00000134  00000+0  40819-4 0  9993
2 43569  86.3955 241.3047 0002313  91.1771 268.9690 14.34217144350066
